[{"OBJECT_NAME":"SJ-11-07","OBJECT_ID":"2014-059A","EPOCH":"2026-03-09T21:45:47.816352","MEAN_MOTION":14.63627905,"ECCENTRICITY":0.00120468,"INCLINATION":98.0026,"RA_OF_ASC_NODE":141.1257,"ARG_OF_PERICENTER":102.2482,"MEAN_ANOMALY":258.0071,"EPHEMERIS_TYPE":0,"CLASSIFICATION_TYPE":"U","NORAD_CAT_ID":40261,"ELEMENT_SET_NO":999,"REV_AT_EPOCH":61039,"BSTAR":0.00017894302,"MEAN_MOTION_DOT":8.85e-6,"MEAN_MOTION_DDOT":0},{"OBJECT_NAME":"THORAD AGENA D DEB","OBJECT_ID":"1970-025QQ","EPOCH":"2026-03-09T22:16:40.552032","MEAN_MOTION":14.72649323,"ECCENTRICITY":0.00362657,"INCLINATION":99.9876,"RA_OF_ASC_NODE":49.5884,"ARG_OF_PERICENTER":302.5845,"MEAN_ANOMALY":118.7127,"EPHEMERIS_TYPE":0,"CLASSIFICATION_TYPE":"U","NORAD_CAT_ID":26821,"ELEMENT_SET_NO":999,"REV_AT_EPOCH":69245,"BSTAR":0.0043433352,"MEAN_MOTION_DOT":0.00028003,"MEAN_MOTION_DDOT":0}]
